{"fetched_at":"2026-07-23T17:55:49.414Z","source":"https://celestrak.org/NORAD/elements/gp.php?NAME=RCM&FORMAT=JSON","constellation":"rcm","records":[{"OBJECT_NAME":"RCM-1","OBJECT_ID":"2019-033A","EPOCH":"2026-07-23T11:58:57.276192","CLASSIFICATION_TYPE":"U","MEAN_MOTION":14.92585366,"ECCENTRICITY":0.0001522,"INCLINATION":97.7606,"RA_OF_ASC_NODE":211.4336,"ARG_OF_PERICENTER":90.99,"MEAN_ANOMALY":67.3382,"EPHEMERIS_TYPE":0,"NORAD_CAT_ID":44322,"ELEMENT_SET_NO":999,"REV_AT_EPOCH":38749,"BSTAR":0.000052778,"MEAN_MOTION_DOT":0.00000487,"MEAN_MOTION_DDOT":0},{"OBJECT_NAME":"RCM-3","OBJECT_ID":"2019-033B","EPOCH":"2026-07-23T06:59:29.293728","CLASSIFICATION_TYPE":"U","MEAN_MOTION":14.92587319,"ECCENTRICITY":0.00014802,"INCLINATION":97.76,"RA_OF_ASC_NODE":211.3231,"ARG_OF_PERICENTER":93.0596,"MEAN_ANOMALY":267.0792,"EPHEMERIS_TYPE":0,"NORAD_CAT_ID":44323,"ELEMENT_SET_NO":999,"REV_AT_EPOCH":38748,"BSTAR":0.000015202725,"MEAN_MOTION_DOT":0.00000101,"MEAN_MOTION_DDOT":0}]}
