{"epoch":1784817359,"count":18317,"objects":[{"id":"44322","name":"RCM 1","type":"PAYLOAD","l1":"1 44322U 19033A   26204.49927403  .00000487  00000-0  52778-4 0  9995","l2":"2 44322  97.7606 211.4336 0001522  90.9900  67.3382 14.92585366387498"},{"id":"44323","name":"RCM 3","type":"PAYLOAD","l1":"1 44323U 19033B   26204.29131127  .00000101  00000-0  15203-4 0  9999","l2":"2 44323  97.7600 211.3231 0001480  93.0596 267.0792 14.92587319387487"}]}